<?xml version="1.0" encoding="UTF-8"?>
<ndm xmlns:xsi="http://www.w3.org/2001/XMLSchema-instance" xsi:noNamespaceSchemaLocation="https://sanaregistry.org/r/ndmxml_unqualified/ndmxml-2.0.0-master-2.0.xsd">
<omm id="CCSDS_OMM_VERS" version="2.0">
<header><CREATION_DATE/><ORIGINATOR/></header><body><segment><metadata><OBJECT_NAME>KUIPER-00144</OBJECT_NAME><OBJECT_ID>2025-301A</OBJECT_ID><CENTER_NAME>EARTH</CENTER_NAME><REF_FRAME>TEME</REF_FRAME><TIME_SYSTEM>UTC</TIME_SYSTEM><MEAN_ELEMENT_THEORY>SGP4</MEAN_ELEMENT_THEORY></metadata><data><meanElements><EPOCH>2026-01-03T21:34:54.242688</EPOCH><MEAN_MOTION>15.35834247</MEAN_MOTION><ECCENTRICITY>.00063154</ECCENTRICITY><INCLINATION>51.8712</INCLINATION><RA_OF_ASC_NODE>18.2682</RA_OF_ASC_NODE><ARG_OF_PERICENTER>144.2878</ARG_OF_PERICENTER><MEAN_ANOMALY>215.8531</MEAN_ANOMALY></meanElements><tleParameters><EPHEMERIS_TYPE>0</EPHEMERIS_TYPE><CLASSIFICATION_TYPE>U</CLASSIFICATION_TYPE><NORAD_CAT_ID>67133</NORAD_CAT_ID><ELEMENT_SET_NO>999</ELEMENT_SET_NO><REV_AT_EPOCH>377</REV_AT_EPOCH><BSTAR>.10524596E-2</BSTAR><MEAN_MOTION_DOT>.3708E-3</MEAN_MOTION_DOT><MEAN_MOTION_DDOT>0</MEAN_MOTION_DDOT></tleParameters></data></segment></body></omm>
<omm id="CCSDS_OMM_VERS" version="2.0">
<header><CREATION_DATE/><ORIGINATOR/></header><body><segment><metadata><OBJECT_NAME>KUIPER-00164</OBJECT_NAME><OBJECT_ID>2025-301B</OBJECT_ID><CENTER_NAME>EARTH</CENTER_NAME><REF_FRAME>TEME</REF_FRAME><TIME_SYSTEM>UTC</TIME_SYSTEM><MEAN_ELEMENT_THEORY>SGP4</MEAN_ELEMENT_THEORY></metadata><data><meanElements><EPOCH>2026-01-03T21:22:49.323360</EPOCH><MEAN_MOTION>15.36481486</MEAN_MOTION><ECCENTRICITY>.00030689</ECCENTRICITY><INCLINATION>51.8731</INCLINATION><RA_OF_ASC_NODE>18.2133</RA_OF_ASC_NODE><ARG_OF_PERICENTER>128.8629</ARG_OF_PERICENTER><MEAN_ANOMALY>231.2632</MEAN_ANOMALY></meanElements><tleParameters><EPHEMERIS_TYPE>0</EPHEMERIS_TYPE><CLASSIFICATION_TYPE>U</CLASSIFICATION_TYPE><NORAD_CAT_ID>67134</NORAD_CAT_ID><ELEMENT_SET_NO>999</ELEMENT_SET_NO><REV_AT_EPOCH>395</REV_AT_EPOCH><BSTAR>.16852136E-2</BSTAR><MEAN_MOTION_DOT>.61031E-3</MEAN_MOTION_DOT><MEAN_MOTION_DDOT>0</MEAN_MOTION_DDOT></tleParameters></data></segment></body></omm>
<omm id="CCSDS_OMM_VERS" version="2.0">
<header><CREATION_DATE/><ORIGINATOR/></header><body><segment><metadata><OBJECT_NAME>KUIPER-00175</OBJECT_NAME><OBJECT_ID>2025-301C</OBJECT_ID><CENTER_NAME>EARTH</CENTER_NAME><REF_FRAME>TEME</REF_FRAME><TIME_SYSTEM>UTC</TIME_SYSTEM><MEAN_ELEMENT_THEORY>SGP4</MEAN_ELEMENT_THEORY></metadata><data><meanElements><EPOCH>2026-01-03T22:47:57.118560</EPOCH><MEAN_MOTION>15.36981347</MEAN_MOTION><ECCENTRICITY>.00026504</ECCENTRICITY><INCLINATION>51.8744</INCLINATION><RA_OF_ASC_NODE>17.8570</RA_OF_ASC_NODE><ARG_OF_PERICENTER>79.4894</ARG_OF_PERICENTER><MEAN_ANOMALY>280.6391</MEAN_ANOMALY></meanElements><tleParameters><EPHEMERIS_TYPE>0</EPHEMERIS_TYPE><CLASSIFICATION_TYPE>U</CLASSIFICATION_TYPE><NORAD_CAT_ID>67135</NORAD_CAT_ID><ELEMENT_SET_NO>999</ELEMENT_SET_NO><REV_AT_EPOCH>385</REV_AT_EPOCH><BSTAR>.17297881E-2</BSTAR><MEAN_MOTION_DOT>.63698E-3</MEAN_MOTION_DOT><MEAN_MOTION_DDOT>0</MEAN_MOTION_DDOT></tleParameters></data></segment></body></omm>
<omm id="CCSDS_OMM_VERS" version="2.0">
<header><CREATION_DATE/><ORIGINATOR/></header><body><segment><metadata><OBJECT_NAME>KUIPER-00179</OBJECT_NAME><OBJECT_ID>2025-301D</OBJECT_ID><CENTER_NAME>EARTH</CENTER_NAME><REF_FRAME>TEME</REF_FRAME><TIME_SYSTEM>UTC</TIME_SYSTEM><MEAN_ELEMENT_THEORY>SGP4</MEAN_ELEMENT_THEORY></metadata><data><meanElements><EPOCH>2026-01-03T21:20:15.877824</EPOCH><MEAN_MOTION>15.36569892</MEAN_MOTION><ECCENTRICITY>.00033198</ECCENTRICITY><INCLINATION>51.8741</INCLINATION><RA_OF_ASC_NODE>18.1989</RA_OF_ASC_NODE><ARG_OF_PERICENTER>107.6192</ARG_OF_PERICENTER><MEAN_ANOMALY>252.5158</MEAN_ANOMALY></meanElements><tleParameters><EPHEMERIS_TYPE>0</EPHEMERIS_TYPE><CLASSIFICATION_TYPE>U</CLASSIFICATION_TYPE><NORAD_CAT_ID>67136</NORAD_CAT_ID><ELEMENT_SET_NO>999</ELEMENT_SET_NO><REV_AT_EPOCH>395</REV_AT_EPOCH><BSTAR>.12492267E-2</BSTAR><MEAN_MOTION_DOT>.45176E-3</MEAN_MOTION_DOT><MEAN_MOTION_DDOT>0</MEAN_MOTION_DDOT></tleParameters></data></segment></body></omm>
<omm id="CCSDS_OMM_VERS" version="2.0">
<header><CREATION_DATE/><ORIGINATOR/></header><body><segment><metadata><OBJECT_NAME>KUIPER-00181</OBJECT_NAME><OBJECT_ID>2025-301E</OBJECT_ID><CENTER_NAME>EARTH</CENTER_NAME><REF_FRAME>TEME</REF_FRAME><TIME_SYSTEM>UTC</TIME_SYSTEM><MEAN_ELEMENT_THEORY>SGP4</MEAN_ELEMENT_THEORY></metadata><data><meanElements><EPOCH>2026-01-03T23:26:58.244064</EPOCH><MEAN_MOTION>15.34802544</MEAN_MOTION><ECCENTRICITY>.0010275</ECCENTRICITY><INCLINATION>51.8644</INCLINATION><RA_OF_ASC_NODE>18.0308</RA_OF_ASC_NODE><ARG_OF_PERICENTER>172.2304</ARG_OF_PERICENTER><MEAN_ANOMALY>187.8843</MEAN_ANOMALY></meanElements><tleParameters><EPHEMERIS_TYPE>0</EPHEMERIS_TYPE><CLASSIFICATION_TYPE>U</CLASSIFICATION_TYPE><NORAD_CAT_ID>67137</NORAD_CAT_ID><ELEMENT_SET_NO>999</ELEMENT_SET_NO><REV_AT_EPOCH>394</REV_AT_EPOCH><BSTAR>.19236104E-2</BSTAR><MEAN_MOTION_DOT>.66195E-3</MEAN_MOTION_DOT><MEAN_MOTION_DDOT>0</MEAN_MOTION_DDOT></tleParameters></data></segment></body></omm>
<omm id="CCSDS_OMM_VERS" version="2.0">
<header><CREATION_DATE/><ORIGINATOR/></header><body><segment><metadata><OBJECT_NAME>KUIPER-00183</OBJECT_NAME><OBJECT_ID>2025-301F</OBJECT_ID><CENTER_NAME>EARTH</CENTER_NAME><REF_FRAME>TEME</REF_FRAME><TIME_SYSTEM>UTC</TIME_SYSTEM><MEAN_ELEMENT_THEORY>SGP4</MEAN_ELEMENT_THEORY></metadata><data><meanElements><EPOCH>2026-01-03T21:58:35.112288</EPOCH><MEAN_MOTION>15.34497536</MEAN_MOTION><ECCENTRICITY>.00114525</ECCENTRICITY><INCLINATION>51.8617</INCLINATION><RA_OF_ASC_NODE>18.3652</RA_OF_ASC_NODE><ARG_OF_PERICENTER>172.7458</ARG_OF_PERICENTER><MEAN_ANOMALY>187.3695</MEAN_ANOMALY></meanElements><tleParameters><EPHEMERIS_TYPE>0</EPHEMERIS_TYPE><CLASSIFICATION_TYPE>U</CLASSIFICATION_TYPE><NORAD_CAT_ID>67138</NORAD_CAT_ID><ELEMENT_SET_NO>999</ELEMENT_SET_NO><REV_AT_EPOCH>394</REV_AT_EPOCH><BSTAR>.10645695E-2</BSTAR><MEAN_MOTION_DOT>.35977E-3</MEAN_MOTION_DOT><MEAN_MOTION_DDOT>0</MEAN_MOTION_DDOT></tleParameters></data></segment></body></omm>
<omm id="CCSDS_OMM_VERS" version="2.0">
<header><CREATION_DATE/><ORIGINATOR/></header><body><segment><metadata><OBJECT_NAME>KUIPER-00184</OBJECT_NAME><OBJECT_ID>2025-301G</OBJECT_ID><CENTER_NAME>EARTH</CENTER_NAME><REF_FRAME>TEME</REF_FRAME><TIME_SYSTEM>UTC</TIME_SYSTEM><MEAN_ELEMENT_THEORY>SGP4</MEAN_ELEMENT_THEORY></metadata><data><meanElements><EPOCH>2026-01-03T21:51:53.241696</EPOCH><MEAN_MOTION>15.34809132</MEAN_MOTION><ECCENTRICITY>.00097628</ECCENTRICITY><INCLINATION>51.8633</INCLINATION><RA_OF_ASC_NODE>18.3377</RA_OF_ASC_NODE><ARG_OF_PERICENTER>169.5423</ARG_OF_PERICENTER><MEAN_ANOMALY>190.5768</MEAN_ANOMALY></meanElements><tleParameters><EPHEMERIS_TYPE>0</EPHEMERIS_TYPE><CLASSIFICATION_TYPE>U</CLASSIFICATION_TYPE><NORAD_CAT_ID>67139</NORAD_CAT_ID><ELEMENT_SET_NO>999</ELEMENT_SET_NO><REV_AT_EPOCH>405</REV_AT_EPOCH><BSTAR>.19320256E-2</BSTAR><MEAN_MOTION_DOT>.66492E-3</MEAN_MOTION_DOT><MEAN_MOTION_DDOT>0</MEAN_MOTION_DDOT></tleParameters></data></segment></body></omm>
<omm id="CCSDS_OMM_VERS" version="2.0">
<header><CREATION_DATE/><ORIGINATOR/></header><body><segment><metadata><OBJECT_NAME>KUIPER-00186</OBJECT_NAME><OBJECT_ID>2025-301H</OBJECT_ID><CENTER_NAME>EARTH</CENTER_NAME><REF_FRAME>TEME</REF_FRAME><TIME_SYSTEM>UTC</TIME_SYSTEM><MEAN_ELEMENT_THEORY>SGP4</MEAN_ELEMENT_THEORY></metadata><data><meanElements><EPOCH>2026-01-03T21:41:43.256832</EPOCH><MEAN_MOTION>15.35504483</MEAN_MOTION><ECCENTRICITY>.00077153</ECCENTRICITY><INCLINATION>51.8692</INCLINATION><RA_OF_ASC_NODE>18.2976</RA_OF_ASC_NODE><ARG_OF_PERICENTER>156.3397</ARG_OF_PERICENTER><MEAN_ANOMALY>203.7945</MEAN_ANOMALY></meanElements><tleParameters><EPHEMERIS_TYPE>0</EPHEMERIS_TYPE><CLASSIFICATION_TYPE>U</CLASSIFICATION_TYPE><NORAD_CAT_ID>67140</NORAD_CAT_ID><ELEMENT_SET_NO>999</ELEMENT_SET_NO><REV_AT_EPOCH>377</REV_AT_EPOCH><BSTAR>.8180909E-3</BSTAR><MEAN_MOTION_DOT>.28407E-3</MEAN_MOTION_DOT><MEAN_MOTION_DDOT>0</MEAN_MOTION_DDOT></tleParameters></data></segment></body></omm>
<omm id="CCSDS_OMM_VERS" version="2.0">
<header><CREATION_DATE/><ORIGINATOR/></header><body><segment><metadata><OBJECT_NAME>KUIPER-00187</OBJECT_NAME><OBJECT_ID>2025-301J</OBJECT_ID><CENTER_NAME>EARTH</CENTER_NAME><REF_FRAME>TEME</REF_FRAME><TIME_SYSTEM>UTC</TIME_SYSTEM><MEAN_ELEMENT_THEORY>SGP4</MEAN_ELEMENT_THEORY></metadata><data><meanElements><EPOCH>2026-01-03T21:28:06.734496</EPOCH><MEAN_MOTION>15.36184682</MEAN_MOTION><ECCENTRICITY>.00047629</ECCENTRICITY><INCLINATION>51.8719</INCLINATION><RA_OF_ASC_NODE>18.2372</RA_OF_ASC_NODE><ARG_OF_PERICENTER>142.9433</ARG_OF_PERICENTER><MEAN_ANOMALY>217.1882</MEAN_ANOMALY></meanElements><tleParameters><EPHEMERIS_TYPE>0</EPHEMERIS_TYPE><CLASSIFICATION_TYPE>U</CLASSIFICATION_TYPE><NORAD_CAT_ID>67141</NORAD_CAT_ID><ELEMENT_SET_NO>999</ELEMENT_SET_NO><REV_AT_EPOCH>377</REV_AT_EPOCH><BSTAR>.16534594E-2</BSTAR><MEAN_MOTION_DOT>.59299E-3</MEAN_MOTION_DOT><MEAN_MOTION_DDOT>0</MEAN_MOTION_DDOT></tleParameters></data></segment></body></omm>

</ndm>
